TIGRISAT                
1 40043U 14033AK  24218.86165810  .00005632  00000+0  74327-3 0  9995
2 40043  97.7003  19.4674 0055833 140.8389 219.6884 14.79326368544805
AEROCUBE 6A             
1 40045U 14033AM  24219.02730293  .00010588  00000+0  12385-2 0  9990
2 40045  97.6728  30.5681 0050837 117.6174 243.0216 14.84309624545426
AEROCUBE 6B             
1 40046U 14033AN  24218.76393246  .00011281  00000+0  12922-2 0  9992
2 40046  97.6694  29.0639 0049483 113.7387 246.9030 14.85200890545201
CANX-4                  
1 40055U 14034C   24219.14779467  .00002520  00000+0  35407-3 0  9999
2 40055  98.3914  55.9772 0014088  36.3482 323.8681 14.78302098543962
CANX-5                  
1 40056U 14034D   24218.94958916  .00002448  00000+0  34408-3 0  9994
2 40056  98.3918  55.7766 0014103  37.0539 323.1641 14.78310306534710
UKUBE-1                 
1 40074U 14037F   24219.08880291  .00011215  00000+0  10355-2 0  9999
2 40074  98.3419 152.1122 0001934 258.9233 101.1768 14.94802646546232
BRITE-PL2 (HEWELIUSZ)   
1 40119U 14049B   24219.21270811  .00004476  00000+0  47791-3 0  9994
2 40119  97.8851 318.6701 0015488 195.3086 164.7664 14.89237002540110
AEROCUBE 5C             
1 40965U 15058B   24219.23374066  .00007572  00000+0  67909-3 0  9996
2 40965  64.7680 207.9459 0192488 293.0655  65.0260 14.83292517264457
AEROCUBE 7              
1 40966U 15058C   24219.18315664  .00009426  00000+0  81047-3 0  9999
2 40966  64.7659 201.3928 0187191 292.7198  65.4220 14.85300833264550
FOX-1A (AO-85)          
1 40967U 15058D   24218.97734950  .00007143  00000+0  65420-3 0  9990
2 40967  64.7757 222.7831 0191664 288.9675  69.0749 14.82679753 12371
SINOD-D 1               
1 40968U 15058E   24219.21710742  .00009000  00000+0  78782-3 0  9991
2 40968  64.7756 214.3244 0186089 287.8772  70.2120 14.84819411 15242
SNAP-3 ALICE            
1 40970U 15058G   24219.20110232  .00022022  00000+0  14570-2 0  9994
2 40970  64.7700 168.5855 0154533 285.7306  72.6811 14.98030162 13278
LMRST-SAT               
1 40971U 15058H   24219.22399372  .00007312  00000+0  66759-3 0  9993
2 40971  64.7745 217.5624 0192836 290.2742  67.7730 14.82626532 12415
SNAP-3 EDDIE            
1 40972U 15058J   24219.19942116  .00022952  00000+0  14989-2 0  9994
2 40972  64.7683 161.9037 0154998 286.6117  71.8027 14.98415795 15376
PROPCUBE 3              
1 40973U 15058K   24219.18738087  .00008928  00000+0  77995-3 0  9998
2 40973  64.7697 205.0235 0189143 291.6177  66.4876 14.84523570 13459
BISONSAT                
1 40974U 15058L   24219.18411786  .00016560  00000+0  12272-2 0  9990
2 40974  64.7674 177.5597 0169332 289.2447  69.0414 14.92450831 13220
SNAP-3 JIMI             
1 40975U 15058M   24218.29217886  .00014957  00000+0  12137-2 0  9995
2 40975  64.7680 195.0762 0180826 290.8542  67.3287 14.87879295 12335
PROPCUBE 1 (FLORA)      
1 40976U 15058N   24218.78444931  .00006441  00000+0  61294-3 0  9991
2 40976  64.7737 234.6083 0191023 291.6700  66.4160 14.81447734 15146
SINOD-D 3               
1 40977U 15058P   24218.63856155  .00009077  00000+0  82403-3 0  9994
2 40977  64.7727 227.8814 0185447 290.9056  67.2288 14.83554715 13363
HORYU-4                 
1 41340U 16012D   24218.81103209  .00018152  00000+0  86433-3 0  9996
2 41340  31.0033  11.8382 0009749 111.2729 248.8953 15.17925276465693
RAVAN                   
1 41849U 16067B   24218.78876842  .00015110  00000+0  80309-3 0  9993
2 41849  98.0657  39.4411 0012340 215.9857 144.0544 15.15333051423493
CELTEE 1                
1 41850U 16067C   24218.96673252  .00009674  00000+0  64427-3 0  9996
2 41850  98.1056  31.0591 0001472  59.1481 300.9890 15.07337486422922
OPTICUBE 04             
1 41851U 16067D   24218.95231267  .00006112  00000+0  45544-3 0  9995
2 41851  98.0798  25.9972 0017453 248.6771 111.2590 15.03180164422715
AEROCUBE 8D             
1 41852U 16067E   24218.98007574  .00009936  00000+0  63767-3 0  9995
2 41852  98.1101  30.9596 0004135 305.1636  54.9203 15.08694287422901
AEROCUBE 8C             
1 41853U 16067F   24218.92882456  .00010079  00000+0  64722-3 0  9992
2 41853  98.0923  29.3612 0006977 225.2186 134.8475 15.08656299422889
PROMETHEUS 2-1          
1 41854U 16067G   24218.93107708  .00022301  00000+0  10658-2 0  9993
2 41854  98.1007  37.5726 0011734 244.5546 115.4473 15.18976652423289
PROMETHEUS 2-3          
1 41855U 16067H   24218.46738488  .00026392  00000+0  12629-2 0  9991
2 41855  98.0941  36.5167 0009826 256.4156 103.5982 15.18914143423215
AALTO-1                 
1 42775U 17036L   24219.15188598  .00285624  00000+0  12042-2 0  9992
2 42775  97.0941 249.9180 0002107 136.4827 223.6611 15.84720309396975
CORVUS BC2              
1 42846U 17042X   24218.88818757  .00005614  00000+0  47726-3 0  9991
2 42846  97.3746  41.2396 0007083 249.5868 110.4595 14.98204600384887
CORVUS BC1              
1 42847U 17042Y   24219.04446738  .00006009  00000+0  50842-3 0  9999
2 42847  97.3730  41.7950 0007015 242.4094 117.6418 14.98358365384926
MIRATA                  
1 43015U 17073C   24218.94480090  .00028673  00000+0  12669-2 0  9993
2 43015  97.5887 103.1732 0165118  90.7463 271.2689 15.10176083363837
MAKERSAT 0              
1 43016U 17073D   24218.62453885  .00019218  00000+0  10499-2 0  9995
2 43016  97.5764  96.2603 0193526 115.1003 247.0440 14.99661603363320
GOMX-4B                 
1 43196U 18015E   24218.76858770  .00121131  00000+0  91045-3 0  9993
2 43196  97.6043  36.4805 0005943 138.4763 221.6952 15.72179111363298
GOMX-4A                 
1 43197U 18015F   24219.15657034  .00492239  10602-3  10238-2 0  9995
2 43197  97.5871  43.3621 0002911 198.5360 161.5812 15.99102164363797
SIRION PATHFINDER-2     
1 43759U 18099B   24218.88906252  .00008114  00000+0  59901-3 0  9992
2 43759  97.5266 273.6463 0012822 116.9935 243.2601 15.03443023309976
CORVUS BC4              
1 43767U 18099K   24219.07905012  .00006839  00000+0  51584-3 0  9997
2 43767  97.5109 270.8910 0011349 164.9045 195.2521 15.02704417309888
MOVE-II                 
1 43780U 18099Y   24218.69575302  .00029329  00000+0  14288-2 0  9992
2 43780  97.5184 281.2966 0007512 158.7800 201.3747 15.18277502310439
SPACEBEE-7              
1 43816U 18099BL  24218.89099441  .00018626  00000+0  10463-2 0  9998
2 43816  97.5453 282.0341 0011105 117.4636 242.7725 15.13310582309924
SPACEBEE-6              
1 43818U 18099BN  24218.94319561  .00045315  00000+0  16771-2 0  9997
2 43818  97.5375 288.3609 0008590 120.8757 239.3327 15.27498228310494
SHIELDS 1               
1 43850U 18104B   24218.81266917  .00017459  00000+0  44451-3 0  9997
2 43850  85.0190 249.3825 0008437 232.8999 127.1482 15.39405419313791
SONATE                  
1 44400U 19038Q   24218.93029027  .00027678  00000+0  77114-3 0  9994
2 44400  97.7129 215.3389 0012269 289.5965  70.3953 15.36686986281718
LUCKY-7                 
1 44406U 19038W   24218.92841810  .00054114  00000+0  99022-3 0  9998
2 44406  97.7009 220.2447 0008436 256.9556 103.0752 15.49141551282053
DUCHIFAT-3              
1 44854U 19089C   24219.07136697  .00020675  00000+0  98734-3 0  9992
2 44854  36.9562 105.7264 0003994 178.2627 181.8135 15.18309520255789
M2 PATHFINDER           
1 45727U 20037E   24218.90369249  .00005877  00000+0  50731-3 0  9991
2 45727  97.7789  35.0948 0009901 323.6524  36.4024 14.97606267223382
NETSAT-4                
1 46504U 20068U   24218.84498492  .00013552  00000+0  69972-3 0  9991
2 46504  97.8084 177.3784 0009865 178.5946 181.5316 15.16399083211691
NETSAT-3                
1 46505U 20068V   24218.84907671  .00012559  00000+0  66058-3 0  9994
2 46505  97.8058 176.8258 0008807 186.0439 174.0688 15.15772297211688
NETSAT-1                
1 46506U 20068W   24218.89065518  .00010916  00000+0  60551-3 0  9992
2 46506  97.8083 176.2194 0007263 195.5650 164.5358 15.13929783211641
NETSAT-2                
1 46507U 20068X   24218.93021360  .00012587  00000+0  65124-3 0  9992
2 46507  97.8069 177.0819 0006402 195.7401 164.3633 15.16369655211653
WILDTRACKCUBE-SIMBA     
1 47941U 21022K   24219.19694682  .00018804  00000+0  79630-3 0  9993
2 47941  97.4538 115.5577 0013513 337.6778  22.3869 15.23131503186074
GRBALPHA                
1 47959U 21022AD  24219.15571724  .00027850  00000+0  10066-2 0  9997
2 47959  97.4537 117.7188 0011317 330.3723  29.6874 15.28362233185036
BCCSAT-1                
1 48041U 21022AK  24219.21311055  .00171983  00000+0  20168-2 0  9997
2 48041  97.4534 128.4190 0003081 168.6846 191.4481 15.60927167185700
BEESAT-7                
1 48084U 21022AN  24218.20157814  .04279259  24389-5  28871-2 0  9993
2 48084  97.4313 130.1344 0011459 182.3599 177.7636 16.16658257185486
BEESAT-8                
1 48085U 21022AP  24218.65785312  .00042292  00000+0  12016-2 0  9996
2 48085  97.4723 121.3541 0008391 319.6160  40.4460 15.36020884185462
LEDSAT                  
1 49069U 21073D   24219.16061014  .00024543  00000+0  92556-3 0  9995
2 49069  97.4348 290.0169 0019613 108.3613 251.9761 15.26864428164079
ROBUSTA-1F (MTCUBE 2)   
1 53109U 22080E   24216.87483179 -.00000003  00000+0  00000+0 0  9994
2 53109  70.1227 175.5412 0007800  77.5271 282.6261  6.42584339 48225
SITRO-AIS 5 (KATYS)     
1 57176U 23091L   24219.22373478  .00010916  00000+0  68297-3 0  9996
2 57176  97.6090 271.0003 0015934 313.1413  46.8483 15.09480353 61042
SITRO-AIS 6 (CHIRKIN)   
1 57192U 23091AC  24219.20694926  .00010442  00000+0  65265-3 0  9992
2 57192  97.6090 271.0115 0015547 313.5546  46.4390 15.09537300 61043
SITRO-AIS 8 (ANOKHIN)   
1 57193U 23091AD  24219.16324226  .00012118  00000+0  74863-3 0  9997
2 57193  97.6083 271.0601 0015482 313.8960  46.0989 15.09924090 61043
